SL-3 R/B                
1 19046U 88032B   23169.47825711  .00002695  00000+0  18560-3 0  9991
2 19046  97.4137 158.2592 0036617  70.4577 290.0599 15.06138715901650
SL-16 R/B               
1 19120U 88039B   23169.52280022  .00000176  00000+0  10665-3 0  9997
2 19120  71.0151  12.3343 0019950  63.9865 296.3311 14.19320479817165
COSMOS 1953             
1 19210U 88050A   23169.43702250  .00004233  00000+0  25646-3 0  9995
2 19210  82.5210  64.1259 0016357 353.5454   6.5562 15.10233900886731
SL-8 R/B                
1 19257U 88053B   23169.18150451  .00000184  00000+0  69474-4 0  9990
2 19257  74.0464 145.8345 0021177 216.3557 155.1779 14.37850566833462
COSMOS 1975             
1 19573U 88093A   23169.52629414  .00003913  00000+0  24324-3 0  9990
2 19573  82.5284  20.5832 0016470  45.2451 315.0115 15.09275977868432
SL-14 R/B               
1 19574U 88093B   23169.49291840  .00000537  00000+0  61525-4 0  9999
2 19574  82.5322 254.8895 0022946  87.6659 283.2478 14.83902545853365
SL-16 R/B               
1 19650U 88102B   23169.49929003  .00000044  00000+0  46768-4 0  9999
2 19650  71.0006  85.0326 0012073  84.9371 275.3130 14.15896867786014
INTERCOSMOS 24          
1 20261U 89080A   23169.36412860  .00001173  00000+0  33970-3 0  9993
2 20261  82.6076  30.7260 1199659  78.1069 295.1750 12.57095945541614
SL-14 R/B               
1 20262U 89080C   23169.52559993  .00000246  00000+0  74784-4 0  9990
2 20262  82.5947  91.7350 1233764 297.6048  50.5077 12.49383715535826
DELTA 2 R/B(1)          
1 20303U 89085B   23169.49382427  .00066968  00000+0  69162-3 0  9999
2 20303  35.6311 247.8979 0040278 310.1243  49.5970 15.62557719837088
DELTA 1 R/B             
1 20323U 89089B   23169.22463587  .00000591  00000+0  16023-3 0  9991
2 20323  97.0682 156.7223 0071832  23.4552 336.9894 14.48893636751492
ARIANE 40 R/B           
1 20443U 90005H   23169.18701475  .00000369  00000+0  13492-3 0  9990
2 20443  98.4389 236.6774 0009377 317.4518  42.5942 14.38528614749611
DELTA 2 R/B(1)          
1 20453U 90008B   23169.47940081  .00009781  00000+0  45821-3 0  9992
2 20453  35.6202 240.7317 0241079 140.9594 220.8794 14.96917561774631
COSMOS 2058             
1 20465U 90010A   23169.07638143  .00002250  00000+0  17563-3 0  9993
2 20465  82.4879 297.8744 0016157 103.6578 256.6447 15.00598564792429
SL-14 R/B               
1 20466U 90010B   23169.10678683  .00000536  00000+0  64567-4 0  9993
2 20466  82.5026 121.1922 0019868 342.1377  17.9137 14.81916855780955
SL-14 R/B               
1 20511U 90018B   23169.50128182  .00000489  00000+0  60623-4 0  9996
2 20511  82.5235  72.1062 0018591 119.7093  53.0194 14.80554321775248
HST                     
1 20580U 90037B   23169.52230814  .00003871  00000+0  20161-3 0  9991
2 20580  28.4693 259.1242 0002709  41.3742  66.1675 15.13290569621666
SL-16 R/B               
1 20625U 90046B   23169.41018031  .00000347  00000+0  20458-3 0  9998
2 20625  70.9987 227.7252 0013787   8.9350 351.2015 14.14757109707612
COSMOS 2084             
1 20663U 90055A   23169.20723600  .00003841  00000+0  30715-3 0  9991
2 20663  62.7919 104.7540 0132653  86.0690 275.5558 14.95317992786933
SL-6 R/B(2)             
1 20666U 90055D   23169.27782000  .00003474  00000+0  28520-3 0  9993
2 20666  62.7852  18.2458 0124814 107.6477 253.8293 14.95293336788912
SL-8 R/B                
1 20775U 90078B   23169.37191953  .00012941  00000+0  56725-3 0  9998
2 20775  82.9218  36.7267 0517585  17.6030 344.2372 14.48442136663313
SL-8 R/B                
1 21088U 91006B   23169.13303531 -.00000005  00000+0 -20470-4 0  9998
2 21088  82.9420 190.5358 0021303 305.7138 113.9654 13.77261588627027
OKEAN-3                 
1 21397U 91039A   23169.28727078  .00002271  00000+0  20213-3 0  9998
2 21397  82.5205 213.9713 0018826  98.5261 261.8095 14.95493491715810
COSMOS 2151             
1 21422U 91042A   23169.41739659  .00001898  00000+0  17568-3 0  9997
2 21422  82.4992 318.7520 0014198 163.7482 196.4197 14.93940569714297
SL-14 R/B               
1 21423U 91042B   23169.46583224  .00000457  00000+0  56965-4 0  9993
2 21423  82.4943  72.3388 0015881 268.2551  91.6843 14.80291224705766
ERS-1                   
1 21574U 91050A   23169.20436006  .00000240  00000+0  93863-4 0  9994
2 21574  98.7422 148.5055 0031498 273.7967  85.9618 14.38156329672584
ARIANE 40 R/B           
1 21610U 91050F   23169.42054041  .00000415  00000+0  14127-3 0  9993
2 21610  98.3368 235.9695 0003006 180.3382 179.7806 14.41398199675546
INTERCOSMOS 25          
1 21819U 91086A   23169.30484519  .00001660  00000+0  32116-3 0  9998
2 21819  82.6052 189.4735 1510344  94.5655 282.8865 12.07047688376340
SL-8 R/B                
1 21876U 92008B   23169.10055193  .00000033  00000+0  18008-4 0  9994
2 21876  82.9269 288.0142 0035509  37.0357 135.5883 13.75751414572515
SL-8 R/B                
1 21938U 92020B   23169.24770868 -.00000015  00000+0 -31218-4 0  9995
2 21938  82.9296 173.0010 0028800 193.2486 177.3492 13.75352252564298
COSMOS 2219             
1 22219U 92076A   23169.05291766  .00000116  00000+0  86348-4 0  9997
2 22219  71.0592 298.8778 0019921 279.6258  80.2614 14.13753819577644
SL-16 R/B               
1 22220U 92076B   23169.30212170  .00000268  00000+0  15836-3 0  9990
2 22220  70.9994 124.6452 0012802 182.0589 340.9743 14.16566097580859
COSMOS 2221             
1 22236U 92080A   23169.37303409  .00001749  00000+0  17954-3 0  9993
2 22236  82.5062 147.3421 0014278 283.9240  76.0390 14.89800748632287
SL-16 R/B               
1 22285U 92093B   23169.32614504  .00000009  00000+0  28905-4 0  9994
2 22285  71.0213 293.3417 0003930 356.4356   3.6738 14.15163362572329
COSMOS 2228             
1 22286U 92094A   23169.07799364  .00002195  00000+0  22343-3 0  9993
2 22286  82.5201 105.1379 0021784  42.2713 318.0180 14.90134954627441
SL-16 R/B               
1 22566U 93016B   23169.20629833 -.00000167  00000+0 -61554-4 0  9994
2 22566  71.0055 145.5636 0009089  27.6895 332.4710 14.15061683561337
COSMOS 2242             
1 22626U 93024A   23169.31234346  .00002254  00000+0  23108-3 0  9992
2 22626  82.5205 133.5358 0019677  43.2313 317.0446 14.89899409631855
SL-16 R/B               
1 22803U 93059B   23169.11079983 -.00000184  00000+0 -67695-4 0  9991
2 22803  70.9907 310.1220 0019420 285.2993  74.5984 14.16939129538752
ARIANE 40 R/B           
1 22830U 93061H   23169.46059617  .00000266  00000+0  11588-3 0  9992
2 22830  98.6163 235.5533 0010502 349.4122  10.6838 14.31787434551637
COSMOS 2278             
1 23087U 94023A   23169.51536081 -.00000173  00000+0 -66355-4 0  9999
2 23087  71.0543  96.5060 0006485 114.3980 245.7820 14.13966692504113
SL-16 R/B               
1 23088U 94023B   23169.22049231  .00000265  00000+0  16225-3 0  9994
2 23088  70.9997   1.0691 0003415 336.0920  24.0043 14.14766994505281
SL-16 R/B               
1 23343U 94074B   23169.42679262  .00000546  00000+0  83670-4 0  9990
2 23343  97.8394 218.3970 0006154 201.8909 168.7657 14.77470885540192
SL-16 R/B               
1 23405U 94077B   23169.30518352  .00000038  00000+0  44227-4 0  9992
2 23405  70.9827 286.1670 0004559 250.4805 109.5825 14.15311256475382
ERS-2                   
1 23560U 95021A   23169.34724627  .00037621  00000+0  86803-3 0  9995
2 23560  98.5203 133.5517 0003769  65.1933 294.9703 15.42464685509320
ARIANE 40+ R/B          
1 23561U 95021B   23169.46438421  .00000361  00000+0  13303-3 0  9999
2 23561  98.5737 232.2545 0005973 229.7317 140.7733 14.38449151476109
SL-16 R/B               
1 23705U 95058B   23169.19189945 -.00000260  00000+0 -10929-3 0  9994
2 23705  71.0219 109.8406 0013361 206.5057 153.5384 14.15234428426999
SL-16 R/B               
1 24298U 96051B   23169.16427415 -.00000031  00000+0  93153-5 0  9997
2 24298  70.8278 119.2038 0016785 176.7225 183.4008 14.12517038381075
ORBVIEW 2 (SEASTAR)     
1 24883U 97037A   23169.08912670  .00000361  00000+0  14523-3 0  9992
2 24883  98.7254 299.6044 0003452 107.5417 252.6145 14.34073454365706
SL-16 R/B               
1 25400U 98043G   23169.52642415  .00000072  00000+0  49047-4 0  9991
2 25400  98.7074 107.3295 0010476  30.1292 330.0488 14.25614653297179
SL-16 R/B               
1 25407U 98045B   23169.26030549 -.00000041  00000+0  35496-5 0  9991
2 25407  71.0105 114.4783 0005394 108.7595 251.4114 14.15915296286184
ISS (ZARYA)             
1 25544U 98067A   23169.49077488  .00011509  00000+0  20822-3 0  9990
2 25544  51.6411 322.0684 0004531  53.0496  52.7189 15.50150076401990
CZ-4B R/B               
1 25732U 99025C   23169.15389351  .00000102  00000+0  71080-4 0  9992
2 25732  98.8031 213.4026 0036584 323.0243 104.0050 14.17828326247073
OKEAN-O                 
1 25860U 99039A   23169.37423933  .00000835  00000+0  12434-3 0  9998
2 25860  98.0883 216.4336 0001092  71.9585 288.1744 14.77534350287270
SL-16 R/B               
1 25861U 99039B   23169.07014473  .00000651  00000+0  94549-4 0  9995
2 25861  98.1376 206.3981 0014287 233.3786 126.6112 14.79352028289549
DELTA 2 R/B             
1 25876U 99041E   23169.07035195  .00000529  00000+0  12772-3 0  9999
2 25876  51.7671 301.5890 0523865 302.1832  52.9308 14.06393606222642
HELIOS 1B               
1 25977U 99064A   23169.35993486  .00000715  00000+0  94153-4 0  9994
2 25977  98.2928  22.9805 0002447  70.3078 289.8398 14.83415764537519
TERRA                   
1 25994U 99068A   23169.50908608  .00000560  00000+0  12806-3 0  9998
2 25994  98.0943 237.8618 0002904  79.9894  44.3936 14.59258809249858
SL-16 R/B               
1 26070U 00006B   23169.37166122  .00000237  00000+0  14547-3 0  9995
2 26070  71.0027  30.2045 0018631 257.8194 102.0842 14.15548485207699
TITAN 4B R/B            
1 26474U 00047B   23168.74995913  .00002895  00000+0  24340-3 0  9990
2 26474  67.9942 297.2606 0047671  70.6725 289.9564 14.98923706243142
